{
    "links": {
        "self": "http://www.neowsapp.com/rest/v1/neo/3146501?api_key=iIulBulltgU6a56xZRHN4H3l9WmuAYTsLGpBGhQ2"
    },
    "id": "3146501",
    "neo_reference_id": "3146501",
    "name": "(2003 AJ69)",
    "designation": "2003 AJ69",
    "nasa_jpl_url": "http://ssd.jpl.nasa.gov/sbdb.cgi?sstr=3146501",
    "absolute_magnitude_h": 24.9,
    "estimated_diameter": {
        "kilometers": {
            "estimated_diameter_min": 0.0278326768,
            "estimated_diameter_max": 0.0622357573
        },
        "meters": {
            "estimated_diameter_min": 27.8326768072,
            "estimated_diameter_max": 62.2357573367
        },
        "miles": {
            "estimated_diameter_min": 0.0172944182,
            "estimated_diameter_max": 0.0386714948
        },
        "feet": {
            "estimated_diameter_min": 91.3145593761,
            "estimated_diameter_max": 204.1855621004
        }
    },
    "is_potentially_hazardous_asteroid": false,
    "close_approach_data": [
        {
            "close_approach_date": "2003-01-06",
            "close_approach_date_full": "2003-Jan-06 22:02",
            "epoch_date_close_approach": 1041890520000,
            "relative_velocity": {
                "kilometers_per_second": "10.588619517",
                "kilometers_per_hour": "38119.0302612176",
                "miles_per_hour": "23685.6829975883"
            },
            "miss_distance": {
                "astronomical": "0.0258141558",
                "lunar": "10.0417066062",
                "kilometers": "3861742.723528146",
                "miles": "2399575.6585985748"
            },
            "orbiting_body": "Earth"
        }
    ],
    "orbital_data": {
        "orbit_id": "9",
        "orbit_determination_date": "2017-04-06 09:14:26",
        "first_observation_date": "2003-01-10",
        "last_observation_date": "2003-01-23",
        "data_arc_in_days": 13,
        "observations_used": 31,
        "orbit_uncertainty": "8",
        "minimum_orbit_intersection": ".00980818",
        "jupiter_tisserand_invariant": "3.190",
        "epoch_osculation": "2452653.5",
        "eccentricity": ".6177821480199388",
        "semi_major_axis": "2.469320198293999",
        "inclination": "1.464713198813868",
        "ascending_node_longitude": "303.5467405313978",
        "orbital_period": "1417.308984239481",
        "perihelion_distance": ".943818262042911",
        "perihelion_argument": "130.3183373305515",
        "aphelion_distance": "3.994822134545087",
        "perihelion_time": "2452622.728822865053",
        "mean_anomaly": "7.815955371598171",
        "mean_motion": ".2540024821709387",
        "equinox": "J2000",
        "orbit_class": {
            "orbit_class_type": "APO",
            "orbit_class_description": "Near-Earth asteroid orbits which cross the Earth’s orbit similar to that of 1862 Apollo",
            "orbit_class_range": "a (semi-major axis) > 1.0 AU; q (perihelion) < 1.017 AU"
        }
    },
    "is_sentry_object": false
}